CCSDS_OMM_VERS = 2.0
CREATION_DATE  = 
ORIGINATOR     = 

OBJECT_NAME    = KUIPER-00218
OBJECT_ID      = 2026-030S
CENTER_NAME    = EARTH
REF_FRAME      = TEME
TIME_SYSTEM    = UTC
MEAN_ELEMENT_THEORY = SGP/SGP4

EPOCH          = 2026-02-28T03:14:11.236128
MEAN_MOTION    = 15.34785531
ECCENTRICITY   = .0006468
INCLINATION    = 51.8827
RA_OF_ASC_NODE = 265.2806
ARG_OF_PERICENTER = 28.1818
MEAN_ANOMALY   = 331.9516

EPHEMERIS_TYPE = 0
CLASSIFICATION_TYPE = U
NORAD_CAT_ID   = 67780
ELEMENT_SET_NO = 999
REV_AT_EPOCH   = 362
BSTAR          = .75099E-3
MEAN_MOTION_DOT = .25431E-3
MEAN_MOTION_DDOT = 0

CCSDS_OMM_VERS = 2.0
CREATION_DATE  = 
ORIGINATOR     = 

OBJECT_NAME    = KUIPER-00220
OBJECT_ID      = 2026-030T
CENTER_NAME    = EARTH
REF_FRAME      = TEME
TIME_SYSTEM    = UTC
MEAN_ELEMENT_THEORY = SGP/SGP4

EPOCH          = 2026-02-28T03:20:49.140096
MEAN_MOTION    = 15.34297689
ECCENTRICITY   = .0008079
INCLINATION    = 51.8806
RA_OF_ASC_NODE = 265.3054
ARG_OF_PERICENTER = 30.4897
MEAN_ANOMALY   = 329.6557

EPHEMERIS_TYPE = 0
CLASSIFICATION_TYPE = U
NORAD_CAT_ID   = 67781
ELEMENT_SET_NO = 999
REV_AT_EPOCH   = 362
BSTAR          = .71818E-3
MEAN_MOTION_DOT = .23928E-3
MEAN_MOTION_DDOT = 0

CCSDS_OMM_VERS = 2.0
CREATION_DATE  = 
ORIGINATOR     = 

OBJECT_NAME    = KUIPER-00222
OBJECT_ID      = 2026-030U
CENTER_NAME    = EARTH
REF_FRAME      = TEME
TIME_SYSTEM    = UTC
MEAN_ELEMENT_THEORY = SGP/SGP4

EPOCH          = 2026-02-28T03:42:41.080896
MEAN_MOTION    = 15.32404200
ECCENTRICITY   = .0017679
INCLINATION    = 51.8815
RA_OF_ASC_NODE = 265.4005
ARG_OF_PERICENTER = 34.2537
MEAN_ANOMALY   = 325.9584

EPHEMERIS_TYPE = 0
CLASSIFICATION_TYPE = U
NORAD_CAT_ID   = 67782
ELEMENT_SET_NO = 999
REV_AT_EPOCH   = 362
BSTAR          = -.84446E-3
MEAN_MOTION_DOT = -.27235E-3
MEAN_MOTION_DDOT = 0

CCSDS_OMM_VERS = 2.0
CREATION_DATE  = 
ORIGINATOR     = 

OBJECT_NAME    = KUIPER-00223
OBJECT_ID      = 2026-030V
CENTER_NAME    = EARTH
REF_FRAME      = TEME
TIME_SYSTEM    = UTC
MEAN_ELEMENT_THEORY = SGP/SGP4

EPOCH          = 2026-02-28T03:28:05.259648
MEAN_MOTION    = 15.33806043
ECCENTRICITY   = .0012344
INCLINATION    = 51.8827
RA_OF_ASC_NODE = 265.3429
ARG_OF_PERICENTER = 32.3022
MEAN_ANOMALY   = 327.8717

EPHEMERIS_TYPE = 0
CLASSIFICATION_TYPE = U
NORAD_CAT_ID   = 67783
ELEMENT_SET_NO = 999
REV_AT_EPOCH   = 362
BSTAR          = .92577E-3
MEAN_MOTION_DOT = .30539E-3
MEAN_MOTION_DDOT = 0

CCSDS_OMM_VERS = 2.0
CREATION_DATE  = 
ORIGINATOR     = 

OBJECT_NAME    = KUIPER-00225
OBJECT_ID      = 2026-030W
CENTER_NAME    = EARTH
REF_FRAME      = TEME
TIME_SYSTEM    = UTC
MEAN_ELEMENT_THEORY = SGP/SGP4

EPOCH          = 2026-02-28T03:04:47.010432
MEAN_MOTION    = 15.35430558
ECCENTRICITY   = .0003753
INCLINATION    = 51.8799
RA_OF_ASC_NODE = 265.2348
ARG_OF_PERICENTER = 19.1601
MEAN_ANOMALY   = 340.9526

EPHEMERIS_TYPE = 0
CLASSIFICATION_TYPE = U
NORAD_CAT_ID   = 67784
ELEMENT_SET_NO = 999
REV_AT_EPOCH   = 362
BSTAR          = .80652E-3
MEAN_MOTION_DOT = .27913E-3
MEAN_MOTION_DDOT = 0

CCSDS_OMM_VERS = 2.0
CREATION_DATE  = 
ORIGINATOR     = 

OBJECT_NAME    = KUIPER-00226
OBJECT_ID      = 2026-030X
CENTER_NAME    = EARTH
REF_FRAME      = TEME
TIME_SYSTEM    = UTC
MEAN_ELEMENT_THEORY = SGP/SGP4

EPOCH          = 2026-02-28T03:53:57.331968
MEAN_MOTION    = 15.31445893
ECCENTRICITY   = .0019648
INCLINATION    = 51.8822
RA_OF_ASC_NODE = 265.4514
ARG_OF_PERICENTER = 44.4369
MEAN_ANOMALY   = 315.8187

EPHEMERIS_TYPE = 0
CLASSIFICATION_TYPE = U
NORAD_CAT_ID   = 67785
ELEMENT_SET_NO = 999
REV_AT_EPOCH   = 362
BSTAR          = .61051E-3
MEAN_MOTION_DOT = .18594E-3
MEAN_MOTION_DDOT = 0

CCSDS_OMM_VERS = 2.0
CREATION_DATE  = 
ORIGINATOR     = 

OBJECT_NAME    = KUIPER-00259
OBJECT_ID      = 2026-030Y
CENTER_NAME    = EARTH
REF_FRAME      = TEME
TIME_SYSTEM    = UTC
MEAN_ELEMENT_THEORY = SGP/SGP4

EPOCH          = 2026-02-28T03:16:32.635776
MEAN_MOTION    = 15.34623924
ECCENTRICITY   = .0007955
INCLINATION    = 51.8803
RA_OF_ASC_NODE = 265.2861
ARG_OF_PERICENTER = 23.7684
MEAN_ANOMALY   = 336.3668

EPHEMERIS_TYPE = 0
CLASSIFICATION_TYPE = U
NORAD_CAT_ID   = 67786
ELEMENT_SET_NO = 999
REV_AT_EPOCH   = 362
BSTAR          = .10108E-2
MEAN_MOTION_DOT = .34236E-3
MEAN_MOTION_DDOT = 0

CCSDS_OMM_VERS = 2.0
CREATION_DATE  = 
ORIGINATOR     = 

OBJECT_NAME    = KUIPER-00260
OBJECT_ID      = 2026-030Z
CENTER_NAME    = EARTH
REF_FRAME      = TEME
TIME_SYSTEM    = UTC
MEAN_ELEMENT_THEORY = SGP/SGP4

EPOCH          = 2026-02-28T04:30:11.639808
MEAN_MOTION    = 15.35978831
ECCENTRICITY   = .0001007
INCLINATION    = 51.8786
RA_OF_ASC_NODE = 264.8827
ARG_OF_PERICENTER = 86.6013
MEAN_ANOMALY   = 273.5089

EPHEMERIS_TYPE = 0
CLASSIFICATION_TYPE = U
NORAD_CAT_ID   = 67787
ELEMENT_SET_NO = 999
REV_AT_EPOCH   = 354
BSTAR          = .67864E-3
MEAN_MOTION_DOT = .2383E-3
MEAN_MOTION_DDOT = 0

CCSDS_OMM_VERS = 2.0
CREATION_DATE  = 
ORIGINATOR     = 

OBJECT_NAME    = KUIPER-00262
OBJECT_ID      = 2026-030AA
CENTER_NAME    = EARTH
REF_FRAME      = TEME
TIME_SYSTEM    = UTC
MEAN_ELEMENT_THEORY = SGP/SGP4

EPOCH          = 2026-02-28T04:26:39.011136
MEAN_MOTION    = 15.36288350
ECCENTRICITY   = .0001235
INCLINATION    = 51.8802
RA_OF_ASC_NODE = 264.8684
ARG_OF_PERICENTER = 141.3034
MEAN_ANOMALY   = 218.8041

EPHEMERIS_TYPE = 0
CLASSIFICATION_TYPE = U
NORAD_CAT_ID   = 67788
ELEMENT_SET_NO = 999
REV_AT_EPOCH   = 363
BSTAR          = .86264E-3
MEAN_MOTION_DOT = .3073E-3
MEAN_MOTION_DDOT = 0

CCSDS_OMM_VERS = 2.0
CREATION_DATE  = 
ORIGINATOR     = 

OBJECT_NAME    = KUIPER-00266
OBJECT_ID      = 2026-030AB
CENTER_NAME    = EARTH
REF_FRAME      = TEME
TIME_SYSTEM    = UTC
MEAN_ELEMENT_THEORY = SGP/SGP4

EPOCH          = 2026-02-28T03:58:39.692352
MEAN_MOTION    = 15.31026178
ECCENTRICITY   = .0022236
INCLINATION    = 51.8820
RA_OF_ASC_NODE = 265.4694
ARG_OF_PERICENTER = 44.0941
MEAN_ANOMALY   = 316.1811

EPHEMERIS_TYPE = 0
CLASSIFICATION_TYPE = U
NORAD_CAT_ID   = 67789
ELEMENT_SET_NO = 999
REV_AT_EPOCH   = 362
BSTAR          = .78765E-3
MEAN_MOTION_DOT = .23838E-3
MEAN_MOTION_DDOT = 0

CCSDS_OMM_VERS = 2.0
CREATION_DATE  = 
ORIGINATOR     = 

OBJECT_NAME    = KUIPER-00268
OBJECT_ID      = 2026-030AC
CENTER_NAME    = EARTH
REF_FRAME      = TEME
TIME_SYSTEM    = UTC
MEAN_ELEMENT_THEORY = SGP/SGP4

EPOCH          = 2026-02-28T03:01:42.919680
MEAN_MOTION    = 15.35606283
ECCENTRICITY   = .0001793
INCLINATION    = 51.8836
RA_OF_ASC_NODE = 265.2259
ARG_OF_PERICENTER = 30.6459
MEAN_ANOMALY   = 329.4632

EPHEMERIS_TYPE = 0
CLASSIFICATION_TYPE = U
NORAD_CAT_ID   = 67790
ELEMENT_SET_NO = 999
REV_AT_EPOCH   = 362
BSTAR          = .7788E-3
MEAN_MOTION_DOT = .27088E-3
MEAN_MOTION_DDOT = 0

CCSDS_OMM_VERS = 2.0
CREATION_DATE  = 
ORIGINATOR     = 

OBJECT_NAME    = KUIPER-00270
OBJECT_ID      = 2026-030AD
CENTER_NAME    = EARTH
REF_FRAME      = TEME
TIME_SYSTEM    = UTC
MEAN_ELEMENT_THEORY = SGP/SGP4

EPOCH          = 2026-02-28T01:48:27.107136
MEAN_MOTION    = 15.34199668
ECCENTRICITY   = .000995
INCLINATION    = 51.8805
RA_OF_ASC_NODE = 265.6246
ARG_OF_PERICENTER = 29.4916
MEAN_ANOMALY   = 330.6629

EPHEMERIS_TYPE = 0
CLASSIFICATION_TYPE = U
NORAD_CAT_ID   = 67791
ELEMENT_SET_NO = 999
REV_AT_EPOCH   = 361
BSTAR          = .58101E-3
MEAN_MOTION_DOT = .19221E-3
MEAN_MOTION_DDOT = 0

