KUIPER-00218            
1 67780U 26030S   26059.13485227  .00025431  00000+0  75099-3 0  9990
2 67780  51.8827 265.2806 0006468  28.1818 331.9516 15.34785531  3623
KUIPER-00220            
1 67781U 26030T   26059.13945764  .00023928  00000+0  71818-3 0  9992
2 67781  51.8806 265.3054 0008079  30.4897 329.6557 15.34297689  3621
KUIPER-00222            
1 67782U 26030U   26059.15464214 -.00027235  00000+0 -84446-3 0  9999
2 67782  51.8815 265.4005 0017679  34.2537 325.9584 15.32404200  3624
KUIPER-00223            
1 67783U 26030V   26059.14450532  .00030539  00000+0  92577-3 0  9990
2 67783  51.8827 265.3429 0012344  32.3022 327.8717 15.33806043  3620
KUIPER-00225            
1 67784U 26030W   26059.12832188  .00027913  00000+0  80652-3 0  9993
2 67784  51.8799 265.2348 0003753  19.1601 340.9526 15.35430558  3628
KUIPER-00226            
1 67785U 26030X   26059.16246912  .00018594  00000+0  61051-3 0  9999
2 67785  51.8822 265.4514 0019648  44.4369 315.8187 15.31445893  3623
KUIPER-00259            
1 67786U 26030Y   26059.13648884  .00034236  00000+0  10108-2 0  9998
2 67786  51.8803 265.2861 0007955  23.7684 336.3668 15.34623924  3622
KUIPER-00260            
1 67787U 26030Z   26059.18763472  .00023830  00000+0  67864-3 0  9995
2 67787  51.8786 264.8827 0001007  86.6013 273.5089 15.35978831  3547
KUIPER-00262            
1 67788U 26030AA  26059.18517374  .00030730  00000+0  86264-3 0  9996
2 67788  51.8802 264.8684 0001235 141.3034 218.8041 15.36288350  3634
KUIPER-00266            
1 67789U 26030AB  26059.16573718  .00023838  00000+0  78765-3 0  9997
2 67789  51.8820 265.4694 0022236  44.0941 316.1811 15.31026178  3622
KUIPER-00268            
1 67790U 26030AC  26059.12619120  .00027088  00000+0  77880-3 0  9991
2 67790  51.8836 265.2259 0001793  30.6459 329.4632 15.35606283  3629
KUIPER-00270            
1 67791U 26030AD  26059.07531374  .00019221  00000+0  58101-3 0  9995
2 67791  51.8805 265.6246 0009950  29.4916 330.6629 15.34199668  3615
